#dP2024  3 14  0  0  0.00000000      97 __u+U IGS20 FIT  IAC
## 2305 345600.00000000   900.00000000 60383 0.0000000000000
+  119   C06C07C08C09C10C11C12C13C14C16C19C20C21C22C23C24C25
+        C26C27C28C29C30C32C33C34C35C36C37C38C39C40C41C42C43
+        C44C45C46E02E03E04E05E07E08E09E10E11E12E13E14E15E18
+        E19E21E24E25E26E27E30E31E33E34E36G01G02G03G04G05G06
+        G07G08G09G10G11G12G13G14G15G16G17G18G19G20G21G22G23
+        G24G25G26G27G28G29G30G31G32J02J03J04R01R02R03R04R05
+        R07R08R09R11R12R13R14R15R16R17R18R19R20R21R22R24R25
++         8  7  7  9  7  6  6  7  7  8  6  5  5  6  5  6  6
++         5  5  5  6  5  5  6  5  6  6  5  6  6  6  6  5  5
++         5  6  5  4  4  4  4  4  4  4  4  4  4  4  4  4  4
++         4  4  3  4  4  4  4  4  4  4  4  4  4  3  3  3  3
++         3  3  3  3  3  3  3  3  3  3  3  4  3  3  3  3  3
++         3  3  3  3  3  3  3  3  3 11 11 11  7  7  7  7  6
++         7  7  6  6  7  8  7  6  6  6  6  7  8  7  7  6  8
%c M  cc GPS ccc cccc cccc cccc cccc ccccc ccccc ccccc ccccc
%c cc cc ccc ccc cccc cccc cccc cccc ccccc ccccc ccccc ccccc
%f  1.2500000  1.025000000  0.00000000000  0.000000000000000
%f  0.0000000  0.000000000  0.00000000000  0.000000000000000
%i    0    0    0    0      0      0      0      0         0
%i    0    0    0    0      0      0      0      0         0
/* INFORMATION & ANALYSIS CENTER (IAC)            FINAL DATA
/* S/V CLOCKS ARE ALIGNED TO GNSS TIME                      
/* G:C1WC2W R:C1PC2P E:C1XC5X C:C2IC6I J:C1CC2S             
/* PCV:IGS20_2290 OL/AL:FES2004  NONE     YN ORB:CoN CLK:CoN
*  2024 03 14  5 15  0.00000000
PC06  -9724.771396  40659.538583  -4069.513293    271.828682
PC07  -5658.548344  28078.649565  31055.585571   -917.403519
PC08 -20053.420555  24962.825498 -27544.417313     63.119847
PC09  -5719.625423  41252.533393   4224.760316   -618.152116
PC10   3093.767265  30968.403864  28970.816940     45.978740
PC11   6336.045970 -22926.360749 -14524.611577    458.781527
PC12  14866.018682  -4620.795405 -23123.715233   -212.581629
PC13 -11177.428152  25838.151905 -31315.901584    424.681168
PC14   9902.852242 -12876.664590  22716.265183    401.553315
PC16 -11864.947815  39453.250890  -7763.699885   -395.054769
PC19    851.043548  16425.921806 -22518.182894   -919.490263
PC20 -17408.225585   8282.048483 -20147.629125   -254.937665
PC21  26820.227464   5724.345975   5270.270537   -961.353848
PC22  19699.631256  15658.757369 -12091.912503    -75.649051
PC23  -8105.172707 -14431.518678 -22470.193538   -776.575627
PC24  22208.785070 -16687.874368   2501.106920    955.174966
PC25   9069.508405 -22118.247300 -14395.110926    349.029875
PC26  21608.114190  -2558.089686  17433.909611   -262.490092
PC27 -16489.368708  -5465.678084  21821.816140    284.392672
PC28 -12585.037540 -21684.498770  12261.382001    216.874927
PC29    800.683922  26969.585719   7105.992650    254.303375
PC30 -11741.439138  14513.104999  20724.970455    -38.014213
PC32 -26840.295137  -5587.638838  -5135.114383   -582.690363
PC33   -774.375114 -16422.883210  22553.648813   -957.616116
PC34  10969.373050 -16076.112095 -20022.197160    389.674941
PC35  13371.400666  21274.277943 -12110.162595    411.660467
PC36  -9924.457664  21947.404431  14115.391045     17.561462
PC37 -21537.819866   1751.444597 -17667.798040   -944.478714
PC38 -25747.831453  26348.896111 -20570.890129    142.602078
PC39 -13352.314688  37168.356147 -14377.027205     -7.555729
PC40  -9109.335353  22391.958511  34565.455739    -60.686830
PC41 -19031.729035 -15881.478300  12859.524339   -905.263067
PC42  18834.267115  -7307.798639  19313.917926   -447.278197
PC43    -75.368120 -26766.745389  -7950.026545     64.047517
PC44  16844.468889   4929.928223 -21704.060636    412.652625
PC45   8068.680975  14294.657802  22561.407716    -75.474333
PC46 -21986.447931  17136.646712  -1707.502959   -131.468242
PE02  -2488.670002  17015.730616  24082.387388    111.033685
PE03   5878.440405  24960.638961 -14792.519660   -100.155752
PE04 -19543.337348 -21968.033982  -3390.761088   -349.183418
PE05 -11004.068122  13311.107614 -24030.666180   4728.870334
PE07  21672.579395   6587.928052  19069.675169   -108.798199
PE08  19224.263117  22353.648977   2705.614161   -238.580438
PE09 -21597.799076  -6754.474198 -19066.407121   -369.721275
PE10 -14496.185523  -6750.601167  24905.369710   -609.141773
PE11 -18151.624894   4967.335238  22833.572627   3172.304379
PE12  -9169.801688 -16290.132422  22956.585042   -947.589871
PE13  17957.828898  -4321.315462 -23129.100864    -20.529283
PE14  -6233.405279 -22641.105944  -9322.038335     65.852952
PE15   8775.210580  16719.932756 -22783.328152    -91.107977
PE18  18683.682857  25567.318487  -1344.558176    433.079995
PE19  -3945.504563 -24287.241111  16467.281163   -437.008804
PE21  21919.889923 -13053.265795 -15015.983353   -583.838302
PE24 -29383.060434    896.057143  -3593.514594   -649.992385
PE25 -22245.085162  12866.457500  14691.801648      2.085480
PE26  16331.872649 -22854.243246  -9341.303367    395.836394
PE27  29391.423495  -1262.840015   3218.466327   -298.198206
PE30  19239.916035  11325.558232  19411.084834    -92.644552
PE31 -19452.950253 -11131.921191 -19339.447062    -18.212932
PE33   5797.361703 -27729.955148   8592.261045      8.978341
PE34  -5359.952099  27654.487302  -9093.297240    -99.852731
PE36 -16495.288398  22454.579006   9972.372777   -198.940556
PG01 -11393.889851  23689.697403   1859.275745    173.866607
PG02 -14565.990667  18624.791253  12314.264775   -470.620422
PG03 -19038.514547  12141.022282 -14032.427275    250.830029
PG04  -9500.151938  12286.297344 -21516.124200    314.402471
PG05  25930.281885  -5825.155771   1156.433845   -165.315375
PG06   8978.814141  13837.143909 -20721.499207    368.743069
PG07  -3723.883380  24904.946129   8134.378245    -83.806492
PG08 -15908.584250   4051.559775  20854.088228     53.395898
PG09   3181.970094  21201.397817 -15722.631187    123.889169
PG10 -13737.739674 -11455.165177  19948.074784     -0.297836
PG11  15609.944211   1407.332127 -21412.191318   -606.000347
PG12  20364.424789 -10855.062668 -13381.366284   -486.970778
PG13  18105.493378   6294.096732  18279.628582    633.941359
PG14   9513.157848  13854.943233  20631.878296    349.987469
PG15  15462.760123  -6033.559327  20281.919823    137.437887
PG16 -26586.336775  -1026.928616  -3620.558206   -341.611133
PG17  11961.113463  23190.647872   4908.535998    713.761238
PG18   3952.516662 -24668.339760   8748.699246   -575.083466
PG19  16889.111930  20134.699261  -5221.066232    453.682310
PG20  24036.153655    351.478592 -11060.305007    384.008957
PG21 -15895.389836  13478.422951  16318.230153    131.432802
PG22  16662.616480  11376.601882  17547.566148     16.306968
PG23    -47.925752 -14992.241158  21935.409740    176.666102
PG24  14896.350720 -17361.402774  12728.391085   -445.971977
PG25  10083.354222 -15558.653244 -19260.481013    491.239570
PG26 -21945.917646  -5881.766460 -14195.433399    179.747522
PG27 -20181.536253  -8558.859079  15013.105131    -11.610438
PG28  -8304.222126 -16391.490541 -19197.107924   -163.755065
PG29    267.618658 -20407.528440 -16991.980510   -604.859425
PG30   4610.508438  20510.047236  16206.975786   -420.027517
PG31 -14088.783701  -6330.919242 -21813.670112   -227.979705
PG32 -15573.878845 -21582.228345   1960.514146   -615.721563
PJ02 -30909.014011  23278.022165  21868.519902     -2.893432
PJ03 -29532.992776  26401.545295  19552.496300     -0.195184
PJ04 -26364.349883  20573.053666 -20603.410101     50.690570
PR01   4070.055609  13620.716229 -21176.024875     79.629467
PR02  18294.167790  15426.092728  -8690.941220    -22.591008
PR03  22511.558281   8146.991963   8776.253180     96.321557
PR04  14178.887616  -2989.904570  21024.284042    227.473283
PR05  -1632.285455 -12803.466734  22023.011946    128.364607
PR07 -22399.074666  -7759.774633  -9437.005697     77.899022
PR08 -14056.861036   3280.220129 -20973.301101    -74.712235
PR09  -7942.702901  -8330.401089 -22744.399853    175.218192
PR11 -21851.173562  13143.349498     78.544416     31.317397
PR12  -9884.913290  15632.582402  17592.385149     37.778192
PR13   5423.718147   9623.839144  22972.487369    -45.278330
PR14  20357.268068  -3772.544544  14919.410686     26.205878
PR15  21538.820213 -13576.489700  -1591.677122     81.369636
PR16  10141.615028 -15635.172110 -17430.567765     24.000897
PR17  10467.613394   3788.012248 -22946.119871     68.829896
PR18   8946.166625 -13977.449904 -19379.452533    132.048063
PR19   4422.310172 -23975.724121  -7510.492742   -269.273826
PR20  -4916.762341 -21262.585295  13255.209913   -109.760324
PR21 -10370.165506  -3661.915988  23013.005044    -84.387580
PR22  -9431.573667  14650.670544  18647.945813    112.664774
PR24   6293.904262  20650.769518 -13577.411511    -47.703951
PR25 -10638.156761  -3979.274274  22843.706639    -22.619346
EOF
